[{"OBJECT_NAME":"OBJECT F","OBJECT_ID":"2023-072F","EPOCH":"2026-03-09T23:31:37.259904","MEAN_MOTION":15.29470958,"ECCENTRICITY":0.00062878,"INCLINATION":97.5173,"RA_OF_ASC_NODE":265.798,"ARG_OF_PERICENTER":19.0017,"MEAN_ANOMALY":341.1456,"EPHEMERIS_TYPE":0,"CLASSIFICATION_TYPE":"U","NORAD_CAT_ID":56748,"ELEMENT_SET_NO":999,"REV_AT_EPOCH":15460,"BSTAR":0.00043416252,"MEAN_MOTION_DOT":0.00012341,"MEAN_MOTION_DDOT":0},{"OBJECT_NAME":"STARLINK-34029","OBJECT_ID":"2025-092B","EPOCH":"2026-03-09T07:37:23.265696","MEAN_MOTION":15.27599019,"ECCENTRICITY":0.00018628,"INCLINATION":42.9979,"RA_OF_ASC_NODE":175.0003,"ARG_OF_PERICENTER":278.4208,"MEAN_ANOMALY":81.6432,"EPHEMERIS_TYPE":0,"CLASSIFICATION_TYPE":"U","NORAD_CAT_ID":63805,"ELEMENT_SET_NO":999,"REV_AT_EPOCH":4855,"BSTAR":0.0010564865,"MEAN_MOTION_DOT":0.00028942,"MEAN_MOTION_DDOT":0}]
